NORAD_CAT_ID,OBJECT_NAME,OBJECT_TYPE,EPOCH,MEAN_MOTION,ECCENTRICITY,INCLINATION,RA_OF_ASC_NODE,ARG_OF_PERICENTER,MEAN_ANOMALY,BSTAR,MEAN_MOTION_DOT,MEAN_MOTION_DDOT,TLE_LINE0,TLE_LINE1,TLE_LINE2,SEMIMAJOR_AXIS,PERIOD,APOGEE,PERIGEE,DECAYED
53773.0,STARLINK-4718,PAYLOAD,2023-12-23 06:25:53,15.08851979,0.0001647,53.2182,308.6946,85.4819,274.6361,0.00048192,7.393e-05,0.0,0 STARLINK-4718,1 53773U 22111A   23357.26798493  .00007393  00000-0  48192-3 0  9999,2 53773  53.2182 308.6946 0001647  85.4819 274.6361 15.08851979 70859,6917.844,95.437,540.848,538.569,0.0
53773.0,STARLINK-4718,PAYLOAD,2023-12-23 20:44:22,15.08836037,0.0001551,53.2162,306.0265,85.3991,274.7179,0.00011696,1.574e-05,0.0,0 STARLINK-4718,1 53773U 22111A   23357.86415291  .00001574  00000-0  11696-3 0  9991,2 53773  53.2162 306.0265 0001551  85.3991 274.7179 15.08836037 72046,6917.893,95.438,540.83,538.685,0.0
53773.0,STARLINK-4718,PAYLOAD,2023-12-24 03:05:55,15.08846126,0.0001664,53.2162,304.8373,88.4121,271.7062,0.00028448,4.243e-05,0.0,0 STARLINK-4718,1 53773U 22111A   23358.12911039  .00004243  00000-0  28448-3 0  9991,2 53773  53.2162 304.8373 0001664  88.4121 271.7062 15.08846126 70985,6917.862,95.437,540.878,538.576,0.0
53773.0,STARLINK-4718,PAYLOAD,2023-12-24 20:35:09,15.08847091,0.0001616,53.2159,301.5658,97.9611,262.1564,0.00024641,3.637e-05,0.0,0 STARLINK-4718,1 53773U 22111A   23358.85774924  .00003637  00000-0  24641-3 0  9998,2 53773  53.2159 301.5658 0001616  97.9611 262.1564 15.08847091 72195,6917.859,95.437,540.842,538.606,0.0
53773.0,STARLINK-4718,PAYLOAD,2023-12-25 06:07:27,15.08857578,0.0001703,53.2167,299.778,105.2161,254.902,0.00034816,5.26e-05,0.0,0 STARLINK-4718,1 53773U 22111A   23359.25518182  .00005260  00000-0  34816-3 0  9994,2 53773  53.2167 299.7780 0001703 105.2161 254.9020 15.08857578 71150,6917.827,95.436,540.87,538.514,0.0
53773.0,STARLINK-4718,PAYLOAD,2023-12-25 20:25:56,15.08837567,0.000166,53.2163,297.105,87.4404,272.6778,-1.9698e-05,-6.02e-06,0.0,0 STARLINK-4718,1 53773U 22111A   23359.85135173 -.00000602  00000-0 -19698-4 0  9994,2 53773  53.2163 297.1050 0001660  87.4404 272.6778 15.08837567 71244,6917.888,95.438,540.901,538.604,0.0
53773.0,STARLINK-4718,PAYLOAD,2023-12-26 05:58:15,15.0884039,0.0001645,53.2166,295.3175,102.1228,257.9949,6.2519e-05,7.07e-06,0.0,0 STARLINK-4718,1 53773U 22111A   23360.24879010  .00000707  00000-0  62519-4 0  9998,2 53773  53.2166 295.3175 0001645 102.1228 257.9949 15.08840390 72400,6917.879,95.438,540.882,538.606,0.0
53773.0,STARLINK-4718,PAYLOAD,2023-12-27 02:38:16,15.0884765,0.0001671,53.2171,291.4502,99.7139,260.4042,0.00020447,2.968e-05,0.0,0 STARLINK-4718,1 53773U 22111A   23361.10990866  .00002968  00000-0  20447-3 0  9991,2 53773  53.2171 291.4502 0001671  99.7139 260.4042 15.08847650 71439,6917.857,95.437,540.878,538.566,0.0
53773.0,STARLINK-4718,PAYLOAD,2023-12-27 05:49:02,15.08850326,0.0001738,53.217,290.8558,113.7262,246.3913,0.00026234,3.891e-05,0.0,0 STARLINK-4718,1 53773U 22111A   23361.24238660  .00003891  00000-0  26234-3 0  9999,2 53773  53.2170 290.8558 0001738 113.7262 246.3913 15.08850326 72558,6917.849,95.437,540.916,538.512,0.0
53773.0,STARLINK-4718,PAYLOAD,2023-12-28 00:53:40,15.08840086,0.0001806,53.2182,287.2838,115.998,244.1198,8.611e-05,1.083e-05,0.0,0 STARLINK-4718,1 53773U 22111A   23362.03727149  .00001083  00000-0  86110-4 0  9993,2 53773  53.2182 287.2838 0001806 115.9980 244.1198 15.08840086 71573,6917.88,95.438,540.994,538.496,0.0
53773.0,STARLINK-4718,PAYLOAD,2023-12-29 03:55:13,15.08849134,0.0001605,53.2181,282.2294,89.118,270.9997,6.3717e-05,7.26e-06,0.0,0 STARLINK-4718,1 53773U 22111A   23363.16335015  .00000726  00000-0  63717-4 0  9996,2 53773  53.2181 282.2294 0001605  89.1180 270.9997 15.08849134 71740,6917.852,95.437,540.828,538.607,0.0
53773.0,STARLINK-4718,PAYLOAD,2023-12-30 03:46:00,15.08845842,0.0001463,53.2175,277.7693,85.4858,274.6301,0.0001266,1.728e-05,0.0,0 STARLINK-4718,1 53773U 22111A   23364.15695143  .00001728  00000-0  12660-3 0  9990,2 53773  53.2175 277.7693 0001463  85.4858 274.6301 15.08845842 71896,6917.863,95.437,540.74,538.715,0.0
53773.0,STARLINK-4718,PAYLOAD,2023-12-30 18:04:29,15.08838308,0.0001317,53.2167,275.0953,117.2305,242.8821,-5.185e-05,-1.113e-05,0.0,0 STARLINK-4718,1 53773U 22111A   23364.75311536 -.00001113  00000-0 -51850-4 0  9992,2 53773  53.2167 275.0953 0001317 117.2305 242.8821 15.08838308 71989,6917.886,95.438,540.662,538.839,0.0
53773.0,STARLINK-4718,PAYLOAD,2023-12-30 22:50:38,15.08841942,0.0001518,53.2164,274.2076,111.7724,248.3429,1.2959e-05,-8.2e-07,0.0,0 STARLINK-4718,1 53773U 22111A   23364.95183384 -.00000082  00000-0  12959-4 0  9992,2 53773  53.2164 274.2076 0001518 111.7724 248.3429 15.08841942 73110,6917.874,95.437,540.79,538.689,0.0
53773.0,STARLINK-4718,PAYLOAD,2023-12-31 00:26:01,15.08845536,0.0001511,53.2171,273.9097,109.7483,250.3673,4.3409e-05,4.03e-06,0.0,0 STARLINK-4718,1 53773U 22111A   23365.01807331  .00000403  00000-0  43409-4 0  9995,2 53773  53.2171 273.9097 0001511 109.7483 250.3673 15.08845536 72025,6917.863,95.437,540.774,538.683,0.0
53773.0,STARLINK-4718,PAYLOAD,2023-12-31 22:41:26,15.08840144,0.0001495,53.2169,269.7492,84.7838,275.3325,-6.1176e-06,-3.85e-06,0.0,0 STARLINK-4718,1 53773U 22111A   23365.94544045 -.00000385  00000-0 -61176-5 0  9990,2 53773  53.2169 269.7492 0001495  84.7838 275.3325 15.08840144 73269,6917.88,95.438,540.779,538.711,0.0
53773.0,STARLINK-4718,PAYLOAD,2024-01-01 22:32:12,15.08845445,0.0001582,53.2167,265.2899,79.0294,281.0876,0.00015225,2.136e-05,0.0,0 STARLINK-4718,1 53773U 22111A   24001.93903292  .00002136  00000-0  15225-3 0  9996,2 53773  53.2167 265.2899 0001582  79.0294 281.0876 15.08845445 73410,6917.864,95.437,540.823,538.634,0.0
53773.0,STARLINK-4718,PAYLOAD,2024-01-02 03:18:21,15.08852965,0.000166,53.2168,264.3951,90.6852,269.433,0.00017328,2.472e-05,0.0,0 STARLINK-4718,1 53773U 22111A   24002.13774642  .00002472  00000-0  17328-3 0  9993,2 53773  53.2168 264.3951 0001660  90.6852 269.4330 15.08852965 72347,6917.841,95.437,540.854,538.557,0.0
53773.0,STARLINK-4718,PAYLOAD,2024-01-02 17:36:50,15.08842286,0.0001898,53.2172,261.7131,116.9083,243.2103,7.5027e-05,9.06e-06,0.0,0 STARLINK-4718,1 53773U 22111A   24002.73391383  .00000906  00000-0  75027-4 0  9997,2 53773  53.2172 261.7131 0001898 116.9083 243.2103 15.08842286 72437,6917.873,95.437,541.051,538.425,0.0
53773.0,STARLINK-4718,PAYLOAD,2024-01-02 22:22:59,15.08842375,0.0001616,53.2166,260.8242,108.6249,251.4919,7.9074e-05,9.71e-06,0.0,0 STARLINK-4718,1 53773U 22111A   24002.93263381  .00000971  00000-0  79074-4 0  9993,2 53773  53.2166 260.8242 0001616 108.6249 251.4919 15.08842375 73563,6917.873,95.437,540.856,538.62,0.0
53773.0,STARLINK-4718,PAYLOAD,2024-01-03 03:09:08,15.08843865,0.0001525,53.2166,259.9336,103.3625,256.7537,7.5256e-05,9.1e-06,0.0,0 STARLINK-4718,1 53773U 22111A   24003.13135290  .00000910  00000-0  75256-4 0  9994,2 53773  53.2166 259.9336 0001525 103.3625 256.7537 15.08843865 73597,6917.869,95.437,540.789,538.679,0.0
53773.0,STARLINK-4718,PAYLOAD,2024-01-03 19:03:00,15.08839739,0.0001618,53.2164,256.9586,108.1596,251.9572,-6.2904e-05,-1.289e-05,0.0,0 STARLINK-4718,1 53773U 22111A   24003.79375921 -.00001289  00000-0 -62904-4 0  9991,2 53773  53.2164 256.9586 0001618 108.1596 251.9572 15.08839739 72592,6917.881,95.438,540.865,538.627,0.0
53773.0,STARLINK-4718,PAYLOAD,2024-01-03 22:13:46,15.088455,0.0001737,53.2164,256.3629,112.6196,247.498,-0.00010755,-2e-05,0.0,0 STARLINK-4718,1 53773U 22111A   24003.92623634 -.00002000  00000-0 -10755-3 0  9991,2 53773  53.2164 256.3629 0001737 112.6196 247.4980 15.08845500 73713,6917.864,95.437,540.93,538.527,0.0
53773.0,STARLINK-4718,PAYLOAD,2024-01-04 20:29:10,15.0883966,0.0001492,53.2162,252.2018,102.9798,257.136,6.3224e-05,7.18e-06,0.0,0 STARLINK-4718,1 53773U 22111A   24004.85359633  .00000718  00000-0  63224-4 0  9991,2 53773  53.2162 252.2018 0001492 102.9798 257.1360 15.08839660 72759,6917.881,95.438,540.779,538.714,0.0
53773.0,STARLINK-4718,PAYLOAD,2024-01-04 22:04:33,15.0884087,0.0001495,53.2161,251.9046,102.1846,257.9313,7.3151e-05,8.76e-06,0.0,0 STARLINK-4718,1 53773U 22111A   24004.91983537  .00000876  00000-0  73151-4 0  9999,2 53773  53.2161 251.9046 0001495 102.1846 257.9313 15.08840870 73868,6917.878,95.437,540.777,538.709,0.0
53773.0,STARLINK-4718,PAYLOAD,2024-01-05 02:50:43,15.08843629,0.0001437,53.216,251.0145,92.9352,267.1805,0.00010501,1.384e-05,0.0,0 STARLINK-4718,1 53773U 22111A   24005.11855337  .00001384  00000-0  10501-3 0  9992,2 53773  53.2160 251.0145 0001437  92.9352 267.1805 15.08843629 73899,6917.869,95.437,540.728,538.74,0.0
53773.0,STARLINK-4718,PAYLOAD,2024-01-05 20:19:58,15.08829899,0.0001447,53.2161,247.7419,98.5758,261.5398,2.5318e-05,1.15e-06,0.0,0 STARLINK-4718,1 53773U 22111A   24005.84720718  .00000115  00000-0  25318-4 0  9990,2 53773  53.2161 247.7419 0001447  98.5758 261.5398 15.08829899 72908,6917.911,95.438,540.777,538.775,0.0
53773.0,STARLINK-4718,PAYLOAD,2024-01-06 18:35:22,15.0884078,0.0001435,53.2161,243.5786,96.1754,263.9402,2.2907e-05,7.7e-07,0.0,0 STARLINK-4718,1 53773U 22111A   24006.77456401  .00000077  00000-0  22907-4 0  9996,2 53773  53.2161 243.5786 0001435  96.1754 263.9402 15.08840780 73046,6917.878,95.438,540.736,538.75,0.0
53773.0,STARLINK-4718,PAYLOAD,2024-01-06 21:46:08,15.08842082,0.0001403,53.216,242.9839,98.0784,262.0368,3.2416e-05,2.28e-06,0.0,0 STARLINK-4718,1 53773U 22111A   24006.90704229  .00000228  00000-0  32416-4 0  9999,2 53773  53.2160 242.9839 0001403  98.0784 262.0368 15.08842082 74168,6917.874,95.437,540.71,538.768,0.0
53773.0,STARLINK-4718,PAYLOAD,2024-01-07 00:56:54,15.08843214,0.0001408,53.216,242.389,97.9879,262.1273,4.124e-05,3.69e-06,0.0,0 STARLINK-4718,1 53773U 22111A   24007.03952117  .00000369  00000-0  41240-4 0  9996,2 53773  53.2160 242.3890 0001408  97.9879 262.1273 15.08843214 74183,6917.871,95.437,540.71,538.762,0.0
